[{"OBJECT_NAME":"STARLINK-5704","OBJECT_ID":"2023-015AP","EPOCH":"2026-03-09T22:00:01.999584","MEAN_MOTION":15.08964077,"ECCENTRICITY":7.22e-5,"INCLINATION":42.9997,"RA_OF_ASC_NODE":337.5508,"ARG_OF_PERICENTER":237.0388,"MEAN_ANOMALY":345.3191,"EPHEMERIS_TYPE":0,"CLASSIFICATION_TYPE":"U","NORAD_CAT_ID":55486,"ELEMENT_SET_NO":999,"REV_AT_EPOCH":577,"BSTAR":0.0029909145,"MEAN_MOTION_DOT":0.00048162,"MEAN_MOTION_DDOT":0},{"OBJECT_NAME":"NANOFF A","OBJECT_ID":"2023-185T","EPOCH":"2026-03-09T23:34:34.415328","MEAN_MOTION":15.11542977,"ECCENTRICITY":0.00086783,"INCLINATION":97.5359,"RA_OF_ASC_NODE":137.8345,"ARG_OF_PERICENTER":292.8968,"MEAN_ANOMALY":67.1346,"EPHEMERIS_TYPE":0,"CLASSIFICATION_TYPE":"U","NORAD_CAT_ID":58810,"ELEMENT_SET_NO":999,"REV_AT_EPOCH":11805,"BSTAR":0.00027314844,"MEAN_MOTION_DOT":4.57e-5,"MEAN_MOTION_DDOT":0}]
